OBJECT_NAME,OBJECT_ID,EPOCH,MEAN_MOTION,ECCENTRICITY,INCLINATION,RA_OF_ASC_NODE,ARG_OF_PERICENTER,MEAN_ANOMALY,EPHEMERIS_TYPE,CLASSIFICATION_TYPE,NORAD_CAT_ID,ELEMENT_SET_NO,REV_AT_EPOCH,BSTAR,MEAN_MOTION_DOT,MEAN_MOTION_DDOT
STARLINK-30465,2023-146A,2026-06-16T03:17:36.483648,15.27574310,.00013012,43.0000,118.1297,269.2262,90.8440,0,U,57891,999,15211,.16091992E-4,.181E-5,0
STARLINK-30470,2023-146B,2026-06-16T13:56:19.904352,15.27594305,.0001387,43.0038,115.4410,281.6760,78.3936,0,U,57892,999,15218,.11492E-3,.2903E-4,0
STARLINK-30473,2023-146C,2026-06-16T13:10:16.801248,15.27578647,.0000152,43.0018,115.9933,236.7245,123.3592,0,U,57893,999,15217,.30588E-4,.58E-5,0
STARLINK-30443,2023-146D,2026-06-16T03:19:28.175520,15.27571981,.00014853,43.0085,118.1408,274.6292,85.4390,0,U,57894,999,15211,.5820109E-5,-.102E-5,0
STARLINK-30467,2023-146E,2026-06-16T14:01:54.012288,15.27573926,.0000829,43.0007,115.4687,259.3818,100.6940,0,U,57895,999,15217,.24374E-4,.409E-5,0
STARLINK-30469,2023-146F,2026-06-16T03:25:00.196032,15.27578267,.00010017,43.0008,118.1644,263.7048,96.3689,0,U,57896,999,15211,.26162365E-4,.458E-5,0
STARLINK-30474,2023-146G,2026-06-16T03:28:42.132576,15.27580705,.00011676,43.0020,118.1870,264.2759,95.7960,0,U,57897,999,15211,.13045095E-4,.97E-6,0
STARLINK-30479,2023-146H,2026-06-16T12:59:11.190336,15.27581770,.0001262,43.0047,115.9965,265.1503,94.9205,0,U,57898,999,15217,.40808E-4,.861E-5,0
STARLINK-30481,2023-146J,2026-06-16T13:04:44.746176,15.27589125,.0001434,42.9993,116.0257,269.0499,91.0189,0,U,57899,999,15217,.11776E-3,.2981E-4,0
STARLINK-30457,2023-146K,2026-06-16T04:05:42.397440,15.27576333,.00010768,43.0028,118.3689,264.1676,95.9053,0,U,57900,999,15105,.11339786E-4,.5E-6,0
STARLINK-30472,2023-146L,2026-06-16T03:10:54.876576,15.27585107,.00017007,42.9981,114.6778,268.3639,91.7018,0,U,57901,999,15109,.11773446E-3,.2979E-4,0
STARLINK-30462,2023-146M,2026-06-16T13:15:51.158880,15.27576799,.0000938,43.0026,116.0812,272.1495,87.9249,0,U,57902,999,15213,.21981E-4,.343E-5,0
STARLINK-30449,2023-146N,2026-06-16T03:10:11.915040,15.27585988,.00012101,43.0078,118.0841,252.2978,107.7742,0,U,57903,999,15105,.75067767E-4,.1804E-4,0
STARLINK-30466,2023-146P,2026-06-16T13:21:23.836032,15.27575997,.0000936,43.0038,116.1153,255.7864,104.2883,0,U,57904,999,15111,.11578E-4,.57E-6,0
STARLINK-30428,2023-146R,2026-06-16T13:25:06.316896,15.27571571,.0000769,43.0037,116.1254,254.2548,105.8219,0,U,57906,999,15111,-.19765E-4,-.806E-5,0
STARLINK-30482,2023-146S,2026-06-16T13:41:46.753728,15.27563847,.000068,42.9979,116.2175,247.1671,112.9109,0,U,57907,999,15112,-.25987E-4,-.976E-5,0
STARLINK-30464,2023-146T,2026-06-16T13:37:20.097408,15.27574818,.0001122,43.0005,119.5855,268.6589,91.4135,0,U,57908,999,15107,.16103E-4,.181E-5,0
STARLINK-30463,2023-146U,2026-06-16T13:52:51.305376,15.27573227,.0001084,43.0034,116.2675,261.6920,98.3809,0,U,57909,999,15111,-.58539E-5,-.423E-5,0
STARLINK-30453,2023-146V,2026-06-16T13:29:29.251968,15.27596668,.0001417,43.0040,112.7508,266.9213,93.1476,0,U,57910,999,15115,.10898E-3,.2739E-4,0
STARLINK-30478,2023-146W,2026-06-16T03:06:29.708064,15.27576566,.00013346,43.0017,118.0598,250.9415,109.1292,0,U,57911,999,15211,.16105174E-4,.181E-5,0
STARLINK-30477,2023-146X,2026-06-16T03:05:20.772960,15.27584755,.00015208,43.0055,114.6546,267.2166,92.8512,0,U,57912,999,15215,.50265426E-4,.1121E-4,0
STARLINK-30450,2023-147A,2026-06-16T13:39:38.140416,15.27578602,.0001113,43.0062,126.5109,258.3883,101.6843,0,U,57913,999,15172,.22306E-4,.352E-5,0
STARLINK-30483,2023-147B,2026-06-16T18:42:42.617952,15.27581437,.0001575,43.0031,340.0207,273.2191,86.8480,0,U,57914,999,15346,.18961E-4,.26E-5,0
STARLINK-30454,2023-147C,2026-06-16T13:50:45.397248,15.27565569,.0001018,43.0018,126.5652,269.3838,90.6897,0,U,57915,999,15172,-.29549E-4,-.1075E-4,0
STARLINK-30501,2023-147E,2026-06-16T13:54:27.264672,15.27564908,.0000773,43.0113,126.5852,199.8946,160.1875,0,U,57917,999,15174,-.11953E-3,-.3548E-4,0
STARLINK-30499,2023-147F,2026-06-16T18:17:00.446208,15.27581082,.000153,43.0004,340.7145,267.9873,92.0803,0,U,57918,999,15348,.36329E-4,.738E-5,0
STARLINK-30496,2023-147G,2026-06-16T04:46:10.629696,15.27573596,.00004963,43.0037,128.8848,269.3285,90.7510,0,U,57919,999,15169,.437987E-6,-.25E-5,0
STARLINK-30485,2023-147H,2026-06-16T14:16:38.712000,15.27575937,.000079,43.0067,126.7045,262.5808,97.4954,0,U,57920,999,15175,.92529E-5,-.7E-7,0
STARLINK-30492,2023-147J,2026-06-16T14:25:55.825248,15.27558296,.0000216,43.0005,126.7483,258.1640,101.9187,0,U,57921,999,15172,-.58672E-4,-.1875E-4,0
STARLINK-30440,2023-147L,2026-06-16T03:54:34.125408,15.27575368,.0001693,43.0124,129.4752,281.5500,78.5162,0,U,57923,999,15168,.10798685E-4,.35E-6,0
