STARLINK-30465          
1 57891U 23146A   26167.13722782  .00000181  00000+0  16092-4 0  9991
2 57891  43.0000 118.1297 0001301 269.2262  90.8440 15.27574310152112
STARLINK-30470          
1 57892U 23146B   26167.58078593  .00002903  00000+0  11492-3 0  9997
2 57892  43.0038 115.4410 0001387 281.6760  78.3936 15.27594305152180
STARLINK-30473          
1 57893U 23146C   26167.54880557  .00000580  00000+0  30588-4 0  9992
2 57893  43.0018 115.9933 0000152 236.7245 123.3592 15.27578647152171
STARLINK-30443          
1 57894U 23146D   26167.13852055 -.00000102  00000+0  58201-5 0  9994
2 57894  43.0085 118.1408 0001485 274.6292  85.4390 15.27571981152113
STARLINK-30467          
1 57895U 23146E   26167.58465292  .00000409  00000+0  24374-4 0  9999
2 57895  43.0007 115.4687 0000829 259.3818 100.6940 15.27573926152170
STARLINK-30469          
1 57896U 23146F   26167.14236338  .00000458  00000+0  26162-4 0  9990
2 57896  43.0008 118.1644 0001001 263.7048  96.3689 15.27578267152110
STARLINK-30474          
1 57897U 23146G   26167.14493209  .00000097  00000+0  13045-4 0  9998
2 57897  43.0020 118.1870 0001167 264.2759  95.7960 15.27580705152119
STARLINK-30479          
1 57898U 23146H   26167.54110174  .00000861  00000+0  40808-4 0  9996
2 57898  43.0047 115.9965 0001262 265.1503  94.9205 15.27581770152174
STARLINK-30481          
1 57899U 23146J   26167.54496234  .00002981  00000+0  11776-3 0  9997
2 57899  42.9993 116.0257 0001434 269.0499  91.0189 15.27589125152178
STARLINK-30457          
1 57900U 23146K   26167.17062960  .00000050  00000+0  11340-4 0  9997
2 57900  43.0028 118.3689 0001076 264.1676  95.9053 15.27576333151057
STARLINK-30472          
1 57901U 23146L   26167.13257959  .00002979  00000+0  11773-3 0  9999
2 57901  42.9981 114.6778 0001700 268.3639  91.7018 15.27585107151099
STARLINK-30462          
1 57902U 23146M   26167.55267545  .00000343  00000+0  21981-4 0  9994
2 57902  43.0026 116.0812 0000938 272.1495  87.9249 15.27576799152138
STARLINK-30449          
1 57903U 23146N   26167.13208235  .00001804  00000+0  75068-4 0  9998
2 57903  43.0078 118.0841 0001210 252.2978 107.7742 15.27585988151058
STARLINK-30466          
1 57904U 23146P   26167.55652588  .00000057  00000+0  11578-4 0  9994
2 57904  43.0038 116.1153 0000936 255.7864 104.2883 15.27575997151110
STARLINK-30428          
1 57906U 23146R   26167.55910089 -.00000806  00000+0 -19765-4 0  9999
2 57906  43.0037 116.1254 0000769 254.2548 105.8219 15.27571571151114
STARLINK-30482          
1 57907U 23146S   26167.57068002 -.00000976  00000+0 -25987-4 0  9992
2 57907  42.9979 116.2175 0000680 247.1671 112.9109 15.27563847151126
STARLINK-30464          
1 57908U 23146T   26167.56759372  .00000181  00000+0  16103-4 0  9995
2 57908  43.0005 119.5855 0001122 268.6589  91.4135 15.27574818151072
STARLINK-30463          
1 57909U 23146U   26167.57837159 -.00000423  00000+0 -58539-5 0  9998
2 57909  43.0034 116.2675 0001084 261.6920  98.3809 15.27573227151110
STARLINK-30453          
1 57910U 23146V   26167.56214412  .00002739  00000+0  10898-3 0  9994
2 57910  43.0040 112.7508 0001417 266.9213  93.1476 15.27596668151159
STARLINK-30478          
1 57911U 23146W   26167.12951051  .00000181  00000+0  16105-4 0  9991
2 57911  43.0017 118.0598 0001334 250.9415 109.1292 15.27576566152113
STARLINK-30477          
1 57912U 23146X   26167.12871265  .00001121  00000+0  50265-4 0  9990
2 57912  43.0055 114.6546 0001520 267.2166  92.8512 15.27584755152158
STARLINK-30450          
1 57913U 23147A   26167.56919144  .00000352  00000+0  22306-4 0  9999
2 57913  43.0062 126.5109 0001113 258.3883 101.6843 15.27578602151721
STARLINK-30483          
1 57914U 23147B   26167.77965993  .00000260  00000+0  18961-4 0  9996
2 57914  43.0031 340.0207 0001575 273.2191  86.8480 15.27581437153464
STARLINK-30454          
1 57915U 23147C   26167.57691432 -.00001075  00000+0 -29549-4 0  9990
2 57915  43.0018 126.5652 0001018 269.3838  90.6897 15.27565569151727
STARLINK-30501          
1 57917U 23147E   26167.57948223 -.00003548  00000+0 -11953-3 0  9991
2 57917  43.0113 126.5852 0000773 199.8946 160.1875 15.27564908151748
STARLINK-30499          
1 57918U 23147F   26167.76181072  .00000738  00000+0  36329-4 0  9995
2 57918  43.0004 340.7145 0001530 267.9873  92.0803 15.27581082153480
STARLINK-30496          
1 57919U 23147G   26167.19873414 -.00000250  00000+0  43799-6 0  9992
2 57919  43.0037 128.8848 0000496 269.3285  90.7510 15.27573596151697
STARLINK-30485          
1 57920U 23147H   26167.59489250 -.00000007  00000+0  92529-5 0  9993
2 57920  43.0067 126.7045 0000790 262.5808  97.4954 15.27575937151755
STARLINK-30492          
1 57921U 23147J   26167.60134057 -.00001875  00000+0 -58672-4 0  9993
2 57921  43.0005 126.7483 0000216 258.1640 101.9187 15.27558296151727
STARLINK-30440          
1 57923U 23147L   26167.16289497  .00000035  00000+0  10799-4 0  9998
2 57923  43.0124 129.4752 0001693 281.5500  78.5162 15.27575368151681
